start=new Date('2021-09-10T00:00:00.000Z').valueOf();
sats=[{"COUNTRY_CODE":"US","EPOCH":"2021-09-09T16:03:39.471840","RCS_SIZE":"LARGE","INCLINATION":"53.0558","SITE":"AFETR","NORAD_CAT_ID":"47905","REV_AT_EPOCH":"2895","CLASSIFICATION_TYPE":"U","DECAY_DATE":null,"EPHEMERIS_TYPE":"0","GP_ID":"184408505","FILE":"3111873","ECCENTRICITY":"0.00021490","APOAPSIS":"548.685","MEAN_ANOMALY":"249.2479","RA_OF_ASC_NODE":"72.9233","MEAN_MOTION":"15.06405590","TIME_SYSTEM":"UTC","OBJECT_ID":"2021-021AX","PERIAPSIS":"545.708","TLE_LINE2":"2 47905  53.0558  72.9233 0002149 110.8740 249.2479 15.06405590 28952","SEMIMAJOR_AXIS":"6925.331","PERIOD":"95.592","ARG_OF_PERICENTER":"110.8740","OBJECT_TYPE":"PAYLOAD","MEAN_ELEMENT_THEORY":"SGP4","MEAN_MOTION_DOT":"0.00001450","ELEMENT_SET_NO":"999","BSTAR":"0.00011621000000","REF_FRAME":"TEME","TLE_LINE1":"1 47905U 21021AX  21252.66920685  .00001450  00000-0  11621-3 0  9999","CENTER_NAME":"EARTH","OBJECT_NAME":"STARLINK-2365","MEAN_MOTION_DDOT":"0.0000000000000","LAUNCH_DATE":"2021-03-14"},{"CENTER_NAME":"EARTH","OBJECT_NAME":"STARLINK-2366","TLE_LINE1":"1 47906U 21021AY  21252.85307271  .00024494  00000-0  19150-3 0  9999","REF_FRAME":"TEME","BSTAR":"0.00019150000000","LAUNCH_DATE":"2021-03-14","MEAN_MOTION_DDOT":"0.0000000000000","PERIOD":"91.634","SEMIMAJOR_AXIS":"6732.818","TLE_LINE2":"2 47906  53.0533  51.6550 0008905 284.2179  75.7849 15.71474999 29269","PERIAPSIS":"348.687","ELEMENT_SET_NO":"999","OBJECT_TYPE":"PAYLOAD","MEAN_MOTION_DOT":"0.00024494","MEAN_ELEMENT_THEORY":"SGP4","ARG_OF_PERICENTER":"284.2179","APOAPSIS":"360.678","MEAN_ANOMALY":"75.7849","ECCENTRICITY":"0.00089050","FILE":"3111873","GP_ID":"184408755","OBJECT_ID":"2021-021AY","TIME_SYSTEM":"UTC","RA_OF_ASC_NODE":"51.6550","MEAN_MOTION":"15.71474999","INCLINATION":"53.0533","RCS_SIZE":"LARGE","COUNTRY_CODE":"US","EPOCH":"2021-09-09T20:28:25.482144","DECAY_DATE":null,"EPHEMERIS_TYPE":"0","CLASSIFICATION_TYPE":"U","REV_AT_EPOCH":"2926","NORAD_CAT_ID":"47906","SITE":"AFETR"},{"TLE_LINE1":"1 47907U 21021AZ  21252.87747487  .00001175  00000-0  97817-4 0  9997","CENTER_NAME":"EARTH","OBJECT_NAME":"STARLINK-2367","BSTAR":"0.00009781700000","REF_FRAME":"TEME","LAUNCH_DATE":"2021-03-14","MEAN_MOTION_DDOT":"0.0000000000000","TLE_LINE2":"2 47907  53.0563  91.9886 0002289  87.7142 272.4109 15.06398202 28553","SEMIMAJOR_AXIS":"6925.354","PERIOD":"95.592","PERIAPSIS":"545.634","ELEMENT_SET_NO":"999","ARG_OF_PERICENTER":"87.7142","OBJECT_TYPE":"PAYLOAD","MEAN_ELEMENT_THEORY":"SGP4","MEAN_MOTION_DOT":"0.00001175","ECCENTRICITY":"0.00022890","MEAN_ANOMALY":"272.4109","APOAPSIS":"548.804","GP_ID":"184409507","FILE":"3111873","TIME_SYSTEM":"UTC","OBJECT_ID":"2021-021AZ","MEAN_MOTION":"15.06398202","RA_OF_ASC_NODE":"91.9886","INCLINATION":"53.0563","COUNTRY_CODE":"US","EPOCH":"2021-09-09T21:03:33.828768","RCS_SIZE":"LARGE","REV_AT_EPOCH":"2855","CLASSIFICATION_TYPE":"U","DECAY_DATE":null,"EPHEMERIS_TYPE":"0","SITE":"AFETR","NORAD_CAT_ID":"47907"},{"OBJECT_TYPE":"PAYLOAD","MEAN_ELEMENT_THEORY":"SGP4","MEAN_MOTION_DOT":"0.00001085","ARG_OF_PERICENTER":"88.9855","ELEMENT_SET_NO":"999","PERIAPSIS":"545.771","SEMIMAJOR_AXIS":"6925.373","PERIOD":"95.593","TLE_LINE2":"2 47908  53.0559  91.9535 0002119  88.9855 271.1377 15.06392007 28589","MEAN_MOTION_DDOT":"0.0000000000000","LAUNCH_DATE":"2021-03-14","REF_FRAME":"TEME","BSTAR":"0.00009174400000","OBJECT_NAME":"STARLINK-2368","CENTER_NAME":"EARTH","TLE_LINE1":"1 47908U 21021BA  21252.88485455  .00001085  00000-0  91744-4 0  9996","NORAD_CAT_ID":"47908","SITE":"AFETR","DECAY_DATE":null,"EPHEMERIS_TYPE":"0","REV_AT_EPOCH":"2858","CLASSIFICATION_TYPE":"U","RCS_SIZE":"LARGE","COUNTRY_CODE":"US","EPOCH":"2021-09-09T21:14:11.433120","INCLINATION":"53.0559","MEAN_MOTION":"15.06392007","RA_OF_ASC_NODE":"91.9535","TIME_SYSTEM":"UTC","OBJECT_ID":"2021-021BA","FILE":"3111873","GP_ID":"184409747","MEAN_ANOMALY":"271.1377","APOAPSIS":"548.706","ECCENTRICITY":"0.00021190"},{"INCLINATION":"53.0565","RCS_SIZE":"MEDIUM","EPOCH":"2021-09-09T15:14:34.723968","COUNTRY_CODE":"US","EPHEMERIS_TYPE":"0","DECAY_DATE":null,"CLASSIFICATION_TYPE":"U","REV_AT_EPOCH":"2885","NORAD_CAT_ID":"47909","SITE":"AFETR","APOAPSIS":"548.791","MEAN_ANOMALY":"259.8085","ECCENTRICITY":"0.00022440","FILE":"3111873","GP_ID":"184408006","TIME_SYSTEM":"UTC","OBJECT_ID":"2021-021BB","MEAN_MOTION":"15.06392217","RA_OF_ASC_NODE":"83.0766","SEMIMAJOR_AXIS":"6925.372","PERIOD":"95.593","TLE_LINE2":"2 47909  53.0565  83.0766 0002244 100.3157 259.8085 15.06392217 28850","PERIAPSIS":"545.683","ELEMENT_SET_NO":"999","MEAN_ELEMENT_THEORY":"SGP4","MEAN_MOTION_DOT":"0.00000689","OBJECT_TYPE":"PAYLOAD","ARG_OF_PERICENTER":"100.3157","CENTER_NAME":"EARTH","OBJECT_NAME":"STARLINK-2369","TLE_LINE1":"1 47909U 21021BB  21252.63512412  .00000689  00000-0  65196-4 0  9995","REF_FRAME":"TEME","BSTAR":"0.00006519600000","LAUNCH_DATE":"2021-03-14","MEAN_MOTION_DDOT":"0.0000000000000"},{"ELEMENT_SET_NO":"999","MEAN_MOTION_DOT":"0.00001158","MEAN_ELEMENT_THEORY":"SGP4","OBJECT_TYPE":"PAYLOAD","ARG_OF_PERICENTER":"92.9988","SEMIMAJOR_AXIS":"6925.350","PERIOD":"95.592","TLE_LINE2":"2 47910  53.0549  83.5071 0001808  92.9988 267.1208 15.06399569 28206","PERIAPSIS":"545.963","LAUNCH_DATE":"2021-03-14","MEAN_MOTION_DDOT":"0.0000000000000","CENTER_NAME":"EARTH","OBJECT_NAME":"STARLINK-2370","TLE_LINE1":"1 47910U 21021BC  21252.53834627  .00001158  00000-0  96625-4 0  9994","REF_FRAME":"TEME","BSTAR":"0.00009662500000","EPHEMERIS_TYPE":"0","DECAY_DATE":null,"REV_AT_EPOCH":"2820","CLASSIFICATION_TYPE":"U","NORAD_CAT_ID":"47910","SITE":"AFETR","INCLINATION":"53.0549","RCS_SIZE":"LARGE","EPOCH":"2021-09-09T12:55:13.117728","COUNTRY_CODE":"US","OBJECT_ID":"2021-021BC","TIME_SYSTEM":"UTC","RA_OF_ASC_NODE":"83.5071","MEAN_MOTION":"15.06399569","MEAN_ANOMALY":"267.1208","APOAPSIS":"548.467","ECCENTRICITY":"0.00018080","FILE":"3111758","GP_ID":"184384763"},{"RCS_SIZE":"LARGE","COUNTRY_CODE":"US","EPOCH":"2021-09-09T00:00:56.801952","INCLINATION":"53.0602","NORAD_CAT_ID":"47911","SITE":"AFETR","DECAY_DATE":null,"EPHEMERIS_TYPE":"0","REV_AT_EPOCH":"2823","CLASSIFICATION_TYPE":"U","FILE":"3111654","GP_ID":"184382085","MEAN_ANOMALY":"270.8933","APOAPSIS":"548.680","ECCENTRICITY":"0.00020850","MEAN_MOTION":"15.06392783","RA_OF_ASC_NODE":"100.9224","TIME_SYSTEM":"UTC","OBJECT_ID":"2021-021BD","PERIAPSIS":"545.792","SEMIMAJOR_AXIS":"6925.371","PERIOD":"95.593","TLE_LINE2":"2 47911  53.0602 100.9224 0002085  89.2294 270.8933 15.06392783 28238","OBJECT_TYPE":"PAYLOAD","MEAN_MOTION_DOT":"-0.00000892","MEAN_ELEMENT_THEORY":"SGP4","ARG_OF_PERICENTER":"89.2294","ELEMENT_SET_NO":"999","REF_FRAME":"TEME","BSTAR":"-0.00004096500000","OBJECT_NAME":"STARLINK-2371","CENTER_NAME":"EARTH","TLE_LINE1":"1 47911U 21021BD  21252.00065743 -.00000892  00000-0 -40965-4 0  9994","MEAN_MOTION_DDOT":"0.0000000000000","LAUNCH_DATE":"2021-03-14"},{"CLASSIFICATION_TYPE":"U","REV_AT_EPOCH":"2857","EPHEMERIS_TYPE":"0","DECAY_DATE":null,"SITE":"AFETR","NORAD_CAT_ID":"47912","INCLINATION":"53.0514","EPOCH":"2021-09-09T20:43:38.608320","COUNTRY_CODE":"US","RCS_SIZE":"LARGE","OBJECT_ID":"2021-021BE","TIME_SYSTEM":"UTC","RA_OF_ASC_NODE":"82.0762","MEAN_MOTION":"15.06405239","ECCENTRICITY":"0.00020640","MEAN_ANOMALY":"259.2115","APOAPSIS":"548.627","GP_ID":"184409248","FILE":"3111873","ELEMENT_SET_NO":"999","ARG_OF_PERICENTER":"100.9106","MEAN_ELEMENT_THEORY":"SGP4","MEAN_MOTION_DOT":"0.00001030","OBJECT_TYPE":"PAYLOAD","TLE_LINE2":"2 47912  53.0514  82.0762 0002064 100.9106 259.2115 15.06405239 28579","PERIOD":"95.592","SEMIMAJOR_AXIS":"6925.333","PERIAPSIS":"545.768","LAUNCH_DATE":"2021-03-14","MEAN_MOTION_DDOT":"0.0000000000000","TLE_LINE1":"1 47912U 21021BE  21252.86364130  .00001030  00000-0  88060-4 0  9992","OBJECT_NAME":"STARLINK-2372","CENTER_NAME":"EARTH","BSTAR":"0.00008806000000","REF_FRAME":"TEME"},{"SITE":"AFETR","NORAD_CAT_ID":"47913","REV_AT_EPOCH":"2860","CLASSIFICATION_TYPE":"U","EPHEMERIS_TYPE":"0","DECAY_DATE":null,"EPOCH":"2021-09-09T21:23:26.186784","COUNTRY_CODE":"US","RCS_SIZE":"LARGE","INCLINATION":"53.0568","MEAN_MOTION":"15.06395119","RA_OF_ASC_NODE":"91.9266","TIME_SYSTEM":"UTC","OBJECT_ID":"2021-021BF","GP_ID":"184408506","FILE":"3111873","ECCENTRICITY":"0.00021330","MEAN_ANOMALY":"270.7544","APOAPSIS":"548.706","ARG_OF_PERICENTER":"89.3689","MEAN_MOTION_DOT":"-0.00000833","MEAN_ELEMENT_THEORY":"SGP4","OBJECT_TYPE":"PAYLOAD","ELEMENT_SET_NO":"999","PERIAPSIS":"545.751","TLE_LINE2":"2 47913  53.0568  91.9266 0002133  89.3689 270.7544 15.06395119 28603","SEMIMAJOR_AXIS":"6925.364","PERIOD":"95.592","MEAN_MOTION_DDOT":"0.0000000000000","LAUNCH_DATE":"2021-03-14","BSTAR":"-0.00003704300000","REF_FRAME":"TEME","TLE_LINE1":"1 47913U 21021BF  21252.89127531 -.00000833  00000-0 -37043-4 0  9995","OBJECT_NAME":"STARLINK-2374","CENTER_NAME":"EARTH"},{"RCS_SIZE":"LARGE","COUNTRY_CODE":"US","EPOCH":"2021-09-09T21:19:29.557920","INCLINATION":"53.0566","NORAD_CAT_ID":"47914","SITE":"AFETR","DECAY_DATE":null,"EPHEMERIS_TYPE":"0","CLASSIFICATION_TYPE":"U","REV_AT_EPOCH":"2859","FILE":"3111873","GP_ID":"184408756","APOAPSIS":"548.714","MEAN_ANOMALY":"273.8882","ECCENTRICITY":"0.00021270","RA_OF_ASC_NODE":"91.9377","MEAN_MOTION":"15.06391163","TIME_SYSTEM":"UTC","OBJECT_ID":"2021-021BG","PERIAPSIS":"545.768","PERIOD":"95.593","SEMIMAJOR_AXIS":"6925.376","TLE_LINE2":"2 47914  53.0566  91.9377 0002127  86.2350 273.8882 15.06391163 28591","OBJECT_TYPE":"PAYLOAD","MEAN_MOTION_DOT":"0.00000663","MEAN_ELEMENT_THEORY":"SGP4","ARG_OF_PERICENTER":"86.2350","ELEMENT_SET_NO":"999","REF_FRAME":"TEME","BSTAR":"0.00006346600000","CENTER_NAME":"EARTH","OBJECT_NAME":"STARLINK-2375","TLE_LINE1":"1 47914U 21021BG  21252.88853655  .00000663  00000-0  63466-4 0  9995","MEAN_MOTION_DDOT":"0.0000000000000","LAUNCH_DATE":"2021-03-14"}];
